start=new Date('2022-06-01T00:00:00.000Z').valueOf();
sats=[{"LAUNCH_DATE":"2020-06-04","TLE_LINE1":"1 45704U 20035AZ  22151.38755678 -.00000667  00000-0 -25858-4 0  9993","CLASSIFICATION_TYPE":"U","GP_ID":"205001103","TIME_SYSTEM":"UTC","COUNTRY_CODE":"US","MEAN_MOTION_DOT":"-0.00000667","MEAN_MOTION":"15.06388918","MEAN_ELEMENT_THEORY":"SGP4","DECAY_DATE":null,"REV_AT_EPOCH":"11058","MEAN_ANOMALY":"305.3108","EPHEMERIS_TYPE":"0","OBJECT_ID":"2020-035AZ","OBJECT_NAME":"STARLINK-1409","OBJECT_TYPE":"PAYLOAD","MEAN_MOTION_DDOT":"0.0000000000000","SEMIMAJOR_AXIS":"6925.383","APOAPSIS":"548.477","RA_OF_ASC_NODE":"134.0665","TLE_LINE2":"2 45704  53.0547 134.0665 0001776  54.8047 305.3108 15.06388918110584","ARG_OF_PERICENTER":"54.8047","INCLINATION":"53.0547","REF_FRAME":"TEME","CENTER_NAME":"EARTH","ELEMENT_SET_NO":"999","SITE":"AFETR","NORAD_CAT_ID":"45704","PERIOD":"95.593","RCS_SIZE":"LARGE","EPOCH":"2022-05-31T09:18:04.905792","FILE":"3473840","PERIAPSIS":"546.018","ECCENTRICITY":"0.00017760","BSTAR":"-0.00002585800000"},{"APOAPSIS":"548.634","RA_OF_ASC_NODE":"134.8246","TLE_LINE2":"2 45705  53.0532 134.8246 0002060  56.8842 303.2345 15.06402125110558","ARG_OF_PERICENTER":"56.8842","SEMIMAJOR_AXIS":"6925.342","MEAN_MOTION_DDOT":"0.0000000000000","CENTER_NAME":"EARTH","ELEMENT_SET_NO":"999","INCLINATION":"53.0532","REF_FRAME":"TEME","RCS_SIZE":"LARGE","EPOCH":"2022-05-31T05:09:57.700224","PERIOD":"95.592","SITE":"AFETR","NORAD_CAT_ID":"45705","ECCENTRICITY":"0.00020600","BSTAR":"-0.00002474500000","FILE":"3473218","PERIAPSIS":"545.780","CLASSIFICATION_TYPE":"U","GP_ID":"204986478","LAUNCH_DATE":"2020-06-04","TLE_LINE1":"1 45705U 20035BA  22151.21525116 -.00000650  00000-0 -24745-4 0  9994","COUNTRY_CODE":"US","TIME_SYSTEM":"UTC","MEAN_MOTION_DOT":"-0.00000650","MEAN_ANOMALY":"303.2345","REV_AT_EPOCH":"11055","MEAN_MOTION":"15.06402125","MEAN_ELEMENT_THEORY":"SGP4","DECAY_DATE":null,"OBJECT_NAME":"STARLINK-1410","OBJECT_TYPE":"PAYLOAD","EPHEMERIS_TYPE":"0","OBJECT_ID":"2020-035BA"},{"OBJECT_TYPE":"PAYLOAD","OBJECT_NAME":"STARLINK-1411","EPHEMERIS_TYPE":"0","OBJECT_ID":"2020-035BB","REV_AT_EPOCH":"11103","MEAN_ANOMALY":"301.0079","MEAN_MOTION":"15.06402750","MEAN_ELEMENT_THEORY":"SGP4","DECAY_DATE":null,"TIME_SYSTEM":"UTC","COUNTRY_CODE":"US","MEAN_MOTION_DOT":"-0.00000986","CLASSIFICATION_TYPE":"U","GP_ID":"205036068","LAUNCH_DATE":"2020-06-04","TLE_LINE1":"1 45706U 20035BB  22151.60503636 -.00000986  00000-0 -47270-4 0  9991","ECCENTRICITY":"0.00018200","BSTAR":"-0.00004727000000","FILE":"3474301","PERIAPSIS":"545.945","PERIOD":"95.592","RCS_SIZE":"LARGE","EPOCH":"2022-05-31T14:31:15.141504","SITE":"AFETR","NORAD_CAT_ID":"45706","CENTER_NAME":"EARTH","ELEMENT_SET_NO":"999","INCLINATION":"53.0554","REF_FRAME":"TEME","APOAPSIS":"548.466","RA_OF_ASC_NODE":"103.0714","TLE_LINE2":"2 45706  53.0554 103.0714 0001820  59.1089 301.0079 15.06402750111031","ARG_OF_PERICENTER":"59.1089","MEAN_MOTION_DDOT":"0.0000000000000","SEMIMAJOR_AXIS":"6925.340"},{"BSTAR":"-0.00032608000000","ECCENTRICITY":"0.00017030","PERIAPSIS":"546.008","FILE":"3474387","RCS_SIZE":"LARGE","PERIOD":"95.592","EPOCH":"2022-05-31T19:12:33.946560","NORAD_CAT_ID":"45707","SITE":"AFETR","ELEMENT_SET_NO":"999","CENTER_NAME":"EARTH","REF_FRAME":"TEME","INCLINATION":"53.0552","TLE_LINE2":"2 45707  53.0552 102.2073 0001703  48.8727 311.2408 15.06408530111067","ARG_OF_PERICENTER":"48.8727","APOAPSIS":"548.367","RA_OF_ASC_NODE":"102.2073","SEMIMAJOR_AXIS":"6925.322","MEAN_MOTION_DDOT":"0.0000000000000","OBJECT_NAME":"STARLINK-1412","OBJECT_TYPE":"PAYLOAD","OBJECT_ID":"2020-035BC","EPHEMERIS_TYPE":"0","REV_AT_EPOCH":"11106","MEAN_ANOMALY":"311.2408","MEAN_ELEMENT_THEORY":"SGP4","DECAY_DATE":null,"MEAN_MOTION":"15.06408530","MEAN_MOTION_DOT":"-0.00005136","TIME_SYSTEM":"UTC","COUNTRY_CODE":"US","GP_ID":"205038111","CLASSIFICATION_TYPE":"U","LAUNCH_DATE":"2020-06-04","TLE_LINE1":"1 45707U 20035BC  22151.80039290 -.00005136  00000-0 -32608-3 0  9994"},{"OBJECT_NAME":"STARLINK-1418","OBJECT_TYPE":"PAYLOAD","OBJECT_ID":"2020-035BD","EPHEMERIS_TYPE":"0","MEAN_ANOMALY":"302.5901","REV_AT_EPOCH":"11098","DECAY_DATE":null,"MEAN_ELEMENT_THEORY":"SGP4","MEAN_MOTION":"15.06392238","MEAN_MOTION_DOT":"-0.00000652","COUNTRY_CODE":"US","TIME_SYSTEM":"UTC","GP_ID":"205000705","CLASSIFICATION_TYPE":"U","LAUNCH_DATE":"2020-06-04","TLE_LINE1":"1 45708U 20035BD  22151.24382720 -.00000652  00000-0 -24897-4 0  9992","BSTAR":"-0.00002489700000","ECCENTRICITY":"0.00015770","PERIAPSIS":"546.145","FILE":"3473846","EPOCH":"2022-05-31T05:51:06.670080","RCS_SIZE":"LARGE","PERIOD":"95.593","NORAD_CAT_ID":"45708","SITE":"AFETR","ELEMENT_SET_NO":"999","CENTER_NAME":"EARTH","REF_FRAME":"TEME","INCLINATION":"53.0539","TLE_LINE2":"2 45708  53.0539 104.6906 0001577  57.5240 302.5901 15.06392238110988","ARG_OF_PERICENTER":"57.5240","RA_OF_ASC_NODE":"104.6906","APOAPSIS":"548.329","SEMIMAJOR_AXIS":"6925.372","MEAN_MOTION_DDOT":"0.0000000000000"},{"DECAY_DATE":null,"MEAN_ELEMENT_THEORY":"SGP4","MEAN_MOTION":"15.06389891","REV_AT_EPOCH":"11099","MEAN_ANOMALY":"306.5846","OBJECT_ID":"2020-035BE","EPHEMERIS_TYPE":"0","OBJECT_TYPE":"PAYLOAD","OBJECT_NAME":"STARLINK-1421","TLE_LINE1":"1 45709U 20035BE  22151.34702942 -.00001018  00000-0 -49479-4 0  9996","LAUNCH_DATE":"2020-06-04","GP_ID":"205001746","CLASSIFICATION_TYPE":"U","MEAN_MOTION_DOT":"-0.00001018","COUNTRY_CODE":"US","TIME_SYSTEM":"UTC","NORAD_CAT_ID":"45709","SITE":"AFETR","RCS_SIZE":"LARGE","PERIOD":"95.593","EPOCH":"2022-05-31T08:19:43.341888","PERIAPSIS":"546.015","FILE":"3473848","BSTAR":"-0.00004947900000","ECCENTRICITY":"0.00017760","MEAN_MOTION_DDOT":"0.0000000000000","SEMIMAJOR_AXIS":"6925.380","TLE_LINE2":"2 45709  53.0562 104.2508 0001776  53.5307 306.5846 15.06389891110994","ARG_OF_PERICENTER":"53.5307","RA_OF_ASC_NODE":"104.2508","APOAPSIS":"548.474","REF_FRAME":"TEME","INCLINATION":"53.0562","ELEMENT_SET_NO":"999","CENTER_NAME":"EARTH"},{"MEAN_MOTION_DDOT":"0.0000000000000","SEMIMAJOR_AXIS":"6925.379","ARG_OF_PERICENTER":"48.2364","TLE_LINE2":"2 45710  53.0561 105.1522 0001847  48.2364 311.8782 15.06389936111375","APOAPSIS":"548.524","RA_OF_ASC_NODE":"105.1522","REF_FRAME":"TEME","INCLINATION":"53.0561","ELEMENT_SET_NO":"999","CENTER_NAME":"EARTH","NORAD_CAT_ID":"45710","SITE":"AFETR","RCS_SIZE":"LARGE","EPOCH":"2022-05-31T03:27:48.301920","PERIOD":"95.593","PERIAPSIS":"545.965","FILE":"3474118","BSTAR":"-0.00011354000000","ECCENTRICITY":"0.00018470","TLE_LINE1":"1 45710U 20035BF  22151.14430905 -.00001972  00000-0 -11354-3 0  9992","LAUNCH_DATE":"2020-06-04","GP_ID":"205026352","CLASSIFICATION_TYPE":"U","MEAN_MOTION_DOT":"-0.00001972","COUNTRY_CODE":"US","TIME_SYSTEM":"UTC","MEAN_ELEMENT_THEORY":"SGP4","DECAY_DATE":null,"MEAN_MOTION":"15.06389936","REV_AT_EPOCH":"11137","MEAN_ANOMALY":"311.8782","OBJECT_ID":"2020-035BF","EPHEMERIS_TYPE":"0","OBJECT_TYPE":"PAYLOAD","OBJECT_NAME":"STARLINK-1423"},{"MEAN_MOTION_DOT":"-0.00000434","TIME_SYSTEM":"UTC","COUNTRY_CODE":"US","TLE_LINE1":"1 45711U 20035BG  22151.39126795 -.00000434  00000-0 -10207-4 0  9998","LAUNCH_DATE":"2020-06-04","GP_ID":"205001246","CLASSIFICATION_TYPE":"U","OBJECT_ID":"2020-035BG","EPHEMERIS_TYPE":"0","OBJECT_TYPE":"PAYLOAD","OBJECT_NAME":"STARLINK-1433","DECAY_DATE":null,"MEAN_ELEMENT_THEORY":"SGP4","MEAN_MOTION":"15.06391064","REV_AT_EPOCH":"11100","MEAN_ANOMALY":"304.0920","REF_FRAME":"TEME","INCLINATION":"53.0543","ELEMENT_SET_NO":"999","CENTER_NAME":"EARTH","MEAN_MOTION_DDOT":"0.0000000000000","SEMIMAJOR_AXIS":"6925.376","ARG_OF_PERICENTER":"56.0268","TLE_LINE2":"2 45711  53.0543 104.0385 0002093  56.0268 304.0920 15.06391064111008","RA_OF_ASC_NODE":"104.0385","APOAPSIS":"548.690","PERIAPSIS":"545.791","FILE":"3473848","BSTAR":"-0.00001020700000","ECCENTRICITY":"0.00020930","NORAD_CAT_ID":"45711","SITE":"AFETR","RCS_SIZE":"LARGE","PERIOD":"95.593","EPOCH":"2022-05-31T09:23:25.550880"},{"MEAN_MOTION_DDOT":"0.0000000000000","SEMIMAJOR_AXIS":"6925.344","TLE_LINE2":"2 45712  53.0552 101.9822 0001789  60.5032 299.6135 15.06401360111076","ARG_OF_PERICENTER":"60.5032","APOAPSIS":"548.448","RA_OF_ASC_NODE":"101.9822","REF_FRAME":"TEME","INCLINATION":"53.0552","ELEMENT_SET_NO":"999","CENTER_NAME":"EARTH","NORAD_CAT_ID":"45712","SITE":"AFETR","RCS_SIZE":"LARGE","PERIOD":"95.592","EPOCH":"2022-05-31T20:26:52.774080","PERIAPSIS":"545.970","FILE":"3474389","BSTAR":"-0.00016776000000","ECCENTRICITY":"0.00017890","LAUNCH_DATE":"2020-06-04","TLE_LINE1":"1 45712U 20035BH  22151.85199970 -.00002780  00000-0 -16776-3 0  9997","GP_ID":"205038157","CLASSIFICATION_TYPE":"U","MEAN_MOTION_DOT":"-0.00002780","COUNTRY_CODE":"US","TIME_SYSTEM":"UTC","MEAN_ELEMENT_THEORY":"SGP4","DECAY_DATE":null,"MEAN_MOTION":"15.06401360","REV_AT_EPOCH":"11107","MEAN_ANOMALY":"299.6135","OBJECT_ID":"2020-035BH","EPHEMERIS_TYPE":"0","OBJECT_NAME":"STARLINK-1434","OBJECT_TYPE":"PAYLOAD"},{"CLASSIFICATION_TYPE":"U","GP_ID":"205001251","TLE_LINE1":"1 45713U 20035BJ  22151.34150123  .00001374  00000-0  11112-3 0  9994","LAUNCH_DATE":"2020-06-04","TIME_SYSTEM":"UTC","COUNTRY_CODE":"US","MEAN_MOTION_DOT":"0.00001374","REV_AT_EPOCH":"11071","MEAN_ANOMALY":"304.5533","MEAN_MOTION":"15.06404111","DECAY_DATE":null,"MEAN_ELEMENT_THEORY":"SGP4","OBJECT_TYPE":"PAYLOAD","OBJECT_NAME":"STARLINK-1436","EPHEMERIS_TYPE":"0","OBJECT_ID":"2020-035BJ","RA_OF_ASC_NODE":"124.2535","APOAPSIS":"548.662","ARG_OF_PERICENTER":"55.5655","TLE_LINE2":"2 45713  53.0529 124.2535 0002110  55.5655 304.5533 15.06404111110719","MEAN_MOTION_DDOT":"0.0000000000000","SEMIMAJOR_AXIS":"6925.336","CENTER_NAME":"EARTH","ELEMENT_SET_NO":"999","INCLINATION":"53.0529","REF_FRAME":"TEME","RCS_SIZE":"LARGE","EPOCH":"2022-05-31T08:11:45.706272","PERIOD":"95.592","SITE":"AFETR","NORAD_CAT_ID":"45713","ECCENTRICITY":"0.00021100","BSTAR":"0.00011112000000","FILE":"3473863","PERIAPSIS":"545.740"}];
